GLOBALSTAR M045         
1 25676U 99019A   25240.93502988 -.00000092  00000+0  12594-4 0  9997
2 25676  51.9965  97.9219 0000992  51.3139  54.8010 12.27064966202322
GLOBALSTAR M019         
1 25677U 99019B   25240.41880086 -.00000028  00000+0  64486-3 0  9994
2 25677  51.9846 234.8426 0001221 101.6243  49.8855 12.13874843193917
GLOBALSTAR M044         
1 25678U 99019C   25240.34247266 -.00000019  00000+0  90851-3 0  9999
2 25678  51.9950 195.4416 0005777 179.0990 347.9439 11.90255123179915
GLOBALSTAR M042         
1 25679U 99019D   25240.38803368 -.00000075  00000+0  15874-3 0  9999
2 25679  51.9992 207.1286 0003152  83.3480  79.5644 12.22085988194081
GLOBALSTAR M025         
1 25770U 99031A   25240.61979405 -.00000083  00000+0 -47405-3 0  9992
2 25770  51.9854 351.4771 0001480 257.8450 203.4325 11.22562504489847
GLOBALSTAR M049         
1 25771U 99031B   25240.61379071 -.00000078  00000+0 -44234-3 0  9997
2 25771  51.9900  29.8920 0003601 125.1982 234.9152 11.12115037125484
GLOBALSTAR M047         
1 25772U 99031C   25240.56157413 -.00000079  00000+0 -26729-3 0  9996
2 25772  51.9862  20.0651 0016663  29.6136 330.5611 11.31929267479302
GLOBALSTAR M052         
1 25773U 99031D   25240.93513728 -.00000081  00000+0 -51166-3 0  9999
2 25773  51.9855 136.8162 0002492 310.5881 134.0593 11.15060400486628
